<?xml version="1.0" encoding="ISO-8859-1"?>
<dossier id="CHINE"
         lienPDF="/FR/aviation/affiche_dossier_preetabli.php">
    <message type="METAR" oaci="LFPG" nom="PARIS CHARLES DE GAULLE">
        <texte><![CDATA[METAR LFPG 201600Z 04005KT 350V070 9999 FEW026 BKN034 BKN140 21/16
Q1015 NOSIG=]]></texte>
    </message>
    <message type="TAFL" oaci="LFPG" nom="PARIS CHARLES DE GAULLE">
        <texte><![CDATA[TAF LFPG 201100Z 2012/2118 04010KT CAVOK TX22/2015Z TN15/2107Z PROB40
 TEMPO 2014/2018 4000 -SHRA SCT020TCU PROB30 TEMPO 2016/2018 2000
-TSRA SCT025CB BECMG 2104/2106 30010KT PROB40 TEMPO 2106/2112 4000 RA
 BKN007 PROB30 TEMPO 2107/2111 2000 -TSRA BKN030 FEW035CB PROB30
TEMPO 2112/2118 4000 -SHRA SCT040TCU=]]></texte>
    </message>
    <message type="METAR" oaci="LFPO" nom="PARIS ORLY">
        <texte><![CDATA[METAR LFPO 201600Z 07006KT 9999 FEW029 BKN150 23/16 Q1015 NOSIG=]]></texte>
    </message>
    <message type="TAFL" oaci="LFPO" nom="PARIS ORLY">
        <texte><![CDATA[TAF LFPO 201100Z 2012/2118 02006KT 9999 BKN025 PROB40 TEMPO 2014/2018
 -SHRA SCT020TCU TEMPO 2100/2113 BKN012 PROB40 TEMPO 2104/2113 4000
SHRA BKN012CB PROB30 TEMPO 2105/2108 2500 TSRA BKN007CB PROB30 TEMPO
2116/2118 4000 SHRA BKN014CB=]]></texte>
    </message>
    <message type="METAR" oaci="LDZA" nom="ZAGREB / PLESO">
        <texte><![CDATA[METAR LDZA 201600Z VRB02KT CAVOK 29/21 Q1018 NOSIG=]]></texte>
    </message>
    <message type="TAFL" oaci="LDZA" nom="ZAGREB / PLESO">
        <texte><![CDATA[TAF LDZA 201125Z 2012/2112 04006KT CAVOK TX34/2111Z TN21/2103Z
BECMG 2012/2014 22003KT=]]></texte>
    </message>
    <message type="METAR" oaci="LCPH" nom="PAFOS INTL">
        <texte><![CDATA[METAR LCPH 201530Z 31010KT 250V320 CAVOK 29/24 Q1006 NOSIG=]]></texte>
    </message>
    <message type="TAFL" oaci="LCPH" nom="PAFOS INTL">
        <texte><![CDATA[TAF LCPH 201130Z 2012/2112 30012KT 9999 FEW020 PROB30 TEMPO 2018/2112
5000 BR BKN010 BECMG 2021/2024 01005KT BECMG 2107/2110 25010KT=]]></texte>
    </message>
    <message type="METAR" oaci="LCLK" nom="LARNAKA INTL">
        <texte><![CDATA[METAR LCLK 201530Z 22015KT CAVOK 30/23 Q1005 NOSIG=]]></texte>
    </message>
    <message type="TAFL" oaci="LCLK" nom="LARNAKA INTL">
        <texte><![CDATA[TAF LCLK 201130Z 2012/2112
20014KT 9999 FEW020 BECMG 2017/2020 30005KT PROB40 TEMPO 2019/2108
5000 BR
BKN010 PROB30 TEMPO 2021/2104 0800 FG BKN001 BECMG 2105/2108 21018KT=]]></texte>
    </message>
    <message type="METAR" oaci="LBSF" nom="SOFIA">
        <texte><![CDATA[METAR LBSF 201600Z AUTO 03008KT 9999 NCD 32/16 Q1018 NOSIG=]]></texte>
    </message>
    <message type="TAFL" oaci="LBSF" nom="SOFIA">
        <texte><![CDATA[TAF LBSF 201100Z 2012/2112 30010KT CAVOK BECMG 2012/2014 02010KT
         BECMG 2017/2019 VRB04KT=]]></texte>
    </message>
    <message type="GAMET" oaci="LBSR" nom="FIR SOFIA">
        <texte><![CDATA[LBSR GAMET VALID 201200/201800 LBSF-
LBSR SOFIA FIR /1 BLW FL150
SECN I
MT OBSC: PARTIALLY
TURB: MOD TURB ABV FL050 W OF E025
SECN II
PSYS: 12 H1019
SFC WIND: 10KT
WIND/T:
 2000 FT NIL KT NIL
 5000 FT 010/12 KT PS20
10000 FT 020/12 KT PS09
CLD: SCT CU/AC 3300/15000 FT AGL
FZLVL:  13200 FT AMSL
MNM QNH: 1011 HPA
VA: NIL=]]></texte>
    </message>
    <message type="METAR" oaci="EDDM" nom="MUENCHEN">
        <texte><![CDATA[METAR EDDM 201550Z AUTO 07003KT 040V100 CAVOK 24/20 Q1019 NOSIG=]]></texte>
    </message>
    <message type="TAFL" oaci="EDDM" nom="MUENCHEN">
        <texte><![CDATA[TAF EDDM 201100Z 2012/2118 08007KT 9999 FEW020 PROB30 TEMPO 2015/2018
     27035G50KT 1500 +TSRAGR SCT012 BKN035CB BECMG 2018/2020 VRB02KT
     PROB30 TEMPO 2101/2106 1200 BCFG BECMG 2106/2108 32007KT PROB30
     TEMPO 2107/2109 SHRA SCT045CB PROB30 TEMPO 2114/2117 27020G30KT
     2000 TSRA SCT007 BKN045CB=]]></texte>
    </message>
    <message type="SIGMET" oaci="EDMM" nom="MUNICH">
        <texte><![CDATA[EDMM SIGMET T01 VALID 201456/201630 EDZF-
EDMM MUENCHEN FIR EMBD TSGR FCST AT 1456Z WI N4735 E01150 - N4809
E01150 - N4810 E01225 - N4736 E01230 - N4735 E01150 TOP FL420 NC FCST
AT 1630Z WI N4832 E01159 - N4751 E01157 - N4750 E01258 - N4834 E01257
- N4832 E01159=]]></texte>
    </message>
    <message type="METAR" oaci="LOWW" nom="WIEN-SCHWECHAT">
        <texte><![CDATA[METAR LOWW 201550Z 07006KT CAVOK 25/15 Q1019 NOSIG=]]></texte>
    </message>
    <message type="TAFL" oaci="LOWW" nom="WIEN-SCHWECHAT">
        <texte><![CDATA[TAF LOWW 201415Z 2015/2121 14005KT CAVOK
    TX32/2115Z TN19/2103Z
    BECMG 2107/2109 15012KT
    BECMG 2118/2120 34012KT FEW050CB=]]></texte>
    </message>
    <message type="GAMET" oaci="LOVV" nom="WIEN">
        <texte><![CDATA[LOVV BALLOON-GAMET VALID 201600/202200 LOWW-
LOVV WIEN FIR / DANUBE AREA BLW FL200
VALID FOR ALL REGIONS N/NE OF ALPS FROM FLACHGAU/INNVIERTEL TO
NORD/MITTELBURGENLAND AND MARIAZELLERLAND
SFC WSPD: 16/20 WDSPR E MAX 10-15KT ENTIRE AREA
TURB:     16/19 FBL/MOD RDGE TURB SFC/060 HFT AMSL ENTIRE AREA
          17/18 WEAK THERMALS ENTIRE AREA
          19/22 FBL/MOD RDGE TURB SFC/060 HFT AMSL E OF WIENERWALD
SIG INV:  NIL
SIGMET APPLICABLE AT TIME OF ISSUE: NIL
PLEASE REFER TO LOW-LEVEL SWC ALPS FOR INFORMATION ON VMC/IMC,
TCU/CB, PRECIPITATION AND TO UPPER WIND/TEMPERATURE CHARTS FOR
ADDITIONAL INFORMATION=]]></texte>
    </message>
    <message type="GAMET" oaci="LOVV" nom="WIEN">
        <texte><![CDATA[LOVV BALLOON-GAMET VALID 201200/201800 LOWW-
LOVV WIEN FIR / DANUBE AREA BLW FL200
VALID FOR ALL REGIONS N/NE OF ALPS FROM FLACHGAU/INNVIERTEL TO
NORD/MITTELBURGENLAND AND MARIAZELLERLAND
SFC WSPD: 12/18 WDSPR E MAX 10-20KT ENTIRE AREA
TURB:     12/18 FBL/MOD RDGE TURB SFC/060 HFT AMSL ENTIRE AREA
                MOD THERMALS ENTIRE AREA
SIG INV:  NIL
SIGMET APPLICABLE AT TIME OF ISSUE: NIL
PLEASE REFER TO LOW-LEVEL SWC ALPS FOR INFORMATION ON VMC/IMC,
TCU/CB, PRECIPITATION AND TO UPPER WIND/TEMPERATURE CHARTS FOR
ADDITIONAL INFORMATION=]]></texte>
    </message>
    <message type="METAR" oaci="LSZH" nom="ZURICH">
        <texte><![CDATA[METAR LSZH 201550Z 12005KT 090V160 CAVOK 25/18 Q1017 NOSIG=]]></texte>
    </message>
    <message type="TAFL" oaci="LSZH" nom="ZURICH">
        <texte><![CDATA[TAF LSZH 201425Z 2015/2121 VRB02KT 9999 FEW070 TX26/2015Z TN16/2106Z
     TX21/2114Z PROB40 TEMPO 2015/2018 05005KT PROB30 TEMPO
     2017/2019 SHRA SCT060TCU PROB30 2104/2107 9999 BKN008 TEMPO
     2104/2110 28012KT SHRA SCT060TCU PROB40 TEMPO 2112/2120
     25015G25KT 4000 TSRA SCT060CB=]]></texte>
    </message>
    <message type="METAR" oaci="LTAC" nom="ANKARA/ESENBOGA">
        <texte><![CDATA[METAR LTAC 201550Z 03013KT 9999 SCT040 31/07 Q1014 NOSIG=]]></texte>
    </message>
    <message type="TAFL" oaci="LTAC" nom="ANKARA/ESENBOGA">
        <texte><![CDATA[TAF LTAC 201040Z 2012/2112 02009KT 9999 SCT040 BECMG 2015/2017 CAVOK=]]></texte>
    </message>
    <message type="SIGMET" oaci="LTAA" nom="ANKARA">
        <texte><![CDATA[LTAA SIGMET 3 VALID 201330/201630 LTAC-
LTAA ANKARA FIR EMBD TS FCST E OF LINE N39 E044 - N39 E039 -
N37 E034 - N38 E035 - N41 E039 TOP FL320 MOV NE 12KT NC=]]></texte>
    </message>
    <message type="METAR" oaci="LYBE" nom="BEOGRAD / NIKOLA TESLA">
        <texte><![CDATA[METAR LYBE 201530Z 33006KT 290V350 CAVOK 34/17 Q1018 NOSIG=]]></texte>
    </message>
    <message type="TAFL" oaci="LYBE" nom="BEOGRAD / NIKOLA TESLA">
        <texte><![CDATA[TAF LYBE 201100Z 2012/2112 28008KT CAVOK TX36/2013Z TN22/2103Z BECMG
         2105/2107 13010KT=]]></texte>
    </message>
    <message type="METAR" oaci="OBBI" nom="BAHRAIN INTERNATIONAL">
        <texte><![CDATA[METAR OBBI 201600Z 07006KT 040V110 CAVOK 35/28 Q0995 NOSIG=]]></texte>
    </message>
    <message type="TAFL" oaci="OBBI" nom="BAHRAIN INTERNATIONAL">
        <texte><![CDATA[TAF OBBI 201100Z 2012/2118 03010KT CAVOK BECMG 2015/2017 VRB05KT=]]></texte>
    </message>
    <message type="METAR" oaci="OJAM" nom="AMMAN/MARKA INTL">
        <texte><![CDATA[METAR OJAM 201500Z 25011KT 6000 NSC 37/11 Q1010 NOSIG=]]></texte>
    </message>
    <message type="TAFL" oaci="OJAM" nom="AMMAN/MARKA INTL">
        <texte><![CDATA[TAF OJAM 200946Z 2012/2118 2806KT 6000 NSC
PROB40 TEMPO 2012/2016 29014 5000 HZ
      PROB30 2112/2116 31016KT 4000 BLDU=]]></texte>
    </message>
    <message type="METAR" oaci="OMSJ" nom="SHARJAH / INTERNATIONAL">
        <texte><![CDATA[METAR OMSJ 201600Z VRB02KT CAVOK 36/27 Q0996 NOSIG=]]></texte>
    </message>
    <message type="TAFL" oaci="OMSJ" nom="SHARJAH / INTERNATIONAL">
        <texte><![CDATA[TAF OMSJ 201100Z 2012/2118 32012KT 8000 NSC
         BECMG 2015/2017 VRB02KT
         BECMG 2108/2110 33014KT
         BECMG 2116/2118 VRB02KT=]]></texte>
    </message>
    <message type="METAR" oaci="OPKC" nom="KARACHI / JINNAH INTERNATIONAL">
        <texte><![CDATA[METAR OPKC 201600Z 22008KT 6000 SCT025 31/26 Q0995 NOSIG=]]></texte>
    </message>
    <message type="TAFL" oaci="OPKC" nom="KARACHI / JINNAH INTERNATIONAL">
        <texte><![CDATA[TAF OPKC 201100Z 2012/2118 22010G20KT 6000 SCT020 TEMPO 2100/2104
         23010KT 4000 FU BKN020=]]></texte>
    </message>
    <message type="SIGMET" oaci="OPKR" nom="KARACHI">
        <texte><![CDATA[OPKR SIGMET 2 VALID 201220/201620 OPKC-
OPKR KARACHI FIR ISOL EMBD TS FCST N OF N28 E OF E068
TOP FL480 MOV S INTSF=]]></texte>
    </message>
    <message type="METAR" oaci="OPLA" nom="ALLAMA IQBAL INTERNATIONAL">
        <texte><![CDATA[METAR OPLA 201555Z 30030KT 4000 TS FEW030CB SCT040 OVC100 27/19 Q1000
           TEMPO 34035G50KT 1000 TSRA FEW030CB RMK QFE974 A29.54=]]></texte>
    </message>
    <message type="TAFL" oaci="OPLA" nom="ALLAMA IQBAL INTERNATIONAL">
        <texte><![CDATA[TAF OPLA 201100Z 2012/2118 15012KT 8000 SCT040 SCT100 TX38/2110Z
         TN25/2100Z TEMPO 2012/2016 34020G50KT 1500 TSRA FEW030CB
         SCT040 BKN100 FM201800 VRB02KT 5000 HZ NSC TEMPO 2108/2114
         03015G35KT 2000 FEW030CB SCT040 BKN100=]]></texte>
    </message>
    <message type="SIGMET" oaci="OPLR" nom="LAHORE">
        <texte><![CDATA[OPLR SIGMET 04 VALID 201430/201830 OPLA-
OPLR LAHORE FIR ISOL TS OBS N OF N30 MOV E WKN=]]></texte>
    </message>
    <message type="METAR" oaci="OSDI" nom="DAMASCUS / INTL">
        <texte><![CDATA[METAR OSDI 201600Z 23010KT CAVOK 39/03 Q1008=]]></texte>
    </message>
    <message type="TAFL" oaci="OSDI" nom="DAMASCUS / INTL">
        <texte><![CDATA[TAF OSDI 201600Z 2018/2124 21015KT CAVOK TEMPO 2106/2118
             25015G25KT 8000 FEW030=]]></texte>
    </message>
    <message type="METAR" oaci="ZBAA" nom="BEIJING / CAPITAL">
        <texte><![CDATA[METAR ZBAA 201530Z 09002MPS 060V130 CAVOK 26/17 Q1002 NOSIG=]]></texte>
    </message>
    <message type="TAFL" oaci="ZBAA" nom="BEIJING / CAPITAL">
        <texte><![CDATA[TAF ZBAA 201502Z 2018/2118 15004MPS 6000 NSC TX28/2107Z TN24/2021Z
 TEMPO 2104/2108 -TSRA FEW040CB=]]></texte>
    </message>
    <message type="SIGMET" oaci="ZBPE" nom="BEIJING">
        <texte><![CDATA[ZBPE SIGMET 2 VALID 201340/201740 ZBAA- ZBPE BEIJING FIR EMBD TS
 FCST N OF N37 TOP FL360 MOV E 25KMH WKN=]]></texte>
    </message>
    <message date_reception='20240620155000' type='VAA' oaci='ADRM' nom='DARWIN'>
        <texte><![CDATA[VA ADVISORY
DTG: 20240620/1550Z
VAAC: DARWIN
VOLCANO: SEMERU 263300
PSN: S0806 E11255
AREA: INDONESIA
SUMMIT ELEV: 3657M
ADVISORY NR: 2024/583
INFO SOURCE: HIMAWARI-9, CVGHM VONA, WEBCAM
AVIATION COLOUR CODE: ORANGE
ERUPTION DETAILS: VA TO FL150 LAST REPORTED AT 20/1454
EST VA DTG: 20/1539Z
EST VA CLD: SFC/FL150 S0809 E11302 - S0813 E11256 - S0754
        E11218 - S0727 E11223 - S0731 E11254 MOV NW 05KT
FCST VA CLD +6 HR: 20/2139Z SFC/FL150 S0802 E11300 - S0810
        E11300 - S0820 E11223 - S0757 E11207 - S0742 E11230
FCST VA CLD +12 HR: 21/0339Z SFC/FL150 S0758 E11300 - S0816
        E11312 - S0832 E11300 - S0830 E11237 - S0813 E11225 - S0756
        E11236
FCST VA CLD +18 HR: 21/0939Z SFC/FL150 S0754 E11300 - S0814
        E11316 - S0834 E11304 - S0832 E11235 - S0814 E11224 - S0754
        E11237
RMK: VA NOT IDENTIFIABLE ON SATELLITE IMAGERY DUE TO MET
        CLOUD, HOWEVER INTERMITTENT VA EMISSIONS OBSERVED ON LATEST
        WEBCAM IMAGERY. CVGHM VONA REPORTED LAST ERUPTION AT
        20/1539Z. VA HEIGHT AND MOVEMENT BASED ON SAT IMAGERY,
        GROUND REPORTS AND MODEL GUIDANCE.
NXT ADVISORY: NO LATER THAN 20240620/2150Z=]]></texte>
    </message>
    <message date_reception='20240620141000' type='VAA' oaci='ADRM' nom='DARWIN'>
        <texte><![CDATA[VA ADVISORY
DTG: 20240620/1410Z
VAAC: DARWIN
VOLCANO: LEWOTOBI 264180
PSN: S0833 E12246
AREA: INDONESIA
SUMMIT ELEV: 1703M
ADVISORY NR: 2024/278
INFO SOURCE: CVGHM VONA, HIMAWARI-9
AVIATION COLOUR CODE: ORANGE
ERUPTION DETAILS: VA TO FL100 LAST OBS AT 20/1040Z MOV WSW
OBS VA DTG: 20/1350Z
OBS VA CLD: SFC/FL100 S0829 E12247 - S0833 E12250 - S0838
        E12245 - S0838 E12237 - S0831 E12240 MOV SW 10KT
FCST VA CLD +6 HR: 20/1950Z SFC/FL100 S0829 E12252 - S0942
        E12246 - S0950 E12136 - S0858 E12125 - S0829 E12240
FCST VA CLD +12 HR: 21/0150Z SFC/FL100 S0829 E12252 - S0940
        E12306 - S0959 E12219 - S0923 E12143 - S0829 E12231
FCST VA CLD +18 HR: 21/0750Z SFC/FL100 S0829 E12252 - S0940
        E12306 - S0958 E12212 - S0916 E12138 - S0829 E12231
RMK: VA NOT IDENTIFIABLE ON LATEST SATELLITE IMAGERY,
        HOWEVER INTERMITTENT VA EMISSIONS EXPECTED TO BE ONGOING.
        CVGHM REPORTED VA 800M ABOVE SUMMIT AT 20/0656Z. HEIGHT AND
        MOVEMENT BASED ON SATELLITE IMAGERY, GROUND REPORT AND MODEL
        GUIDANCE.
NXT ADVISORY: NO LATER THAN 20240620/2010Z=]]></texte>
    </message>
    <message date_reception='20240620134000' type='VAA' oaci='ADRM' nom='DARWIN'>
        <texte><![CDATA[VA ADVISORY
DTG: 20240620/1340Z
VAAC: DARWIN
VOLCANO: DUKONO 268010
PSN: N0142 E12754
AREA: INDONESIA
SUMMIT ELEV: 1229M
ADVISORY NR: 2024/652
INFO SOURCE: HIMAWARI-9
AVIATION COLOUR CODE: ORANGE
ERUPTION DETAILS: VA TO FL080 LAST OBS AT 20/0130Z MOV N
EST VA DTG: 20/1320Z
EST VA CLD: SFC/FL080 N0139 E12757 - N0122 E12708 - N0208
        E12709 - N0146 E12757 MOV W 05KT
FCST VA CLD +6 HR: 20/1920Z SFC/FL080 N0139 E12757 - N0122
        E12708 - N0201 E12708 - N0146 E12757
FCST VA CLD +12 HR: 21/0120Z SFC/FL080 N0139 E12757 - N0118
        E12710 - N0201 E12708 - N0146 E12757
FCST VA CLD +18 HR: 21/0720Z SFC/FL080 N0139 E12757 - N0115
        E12712 - N0157 E12706 - N0146 E12757
RMK: VA NOT IDENTIFIABLE ON LATEST SATELLITE IMAGERY DUE TO
        MET CLOUD, HOWEVER VA EMISSIONS ARE EXPECTED TO BE ONGOING.
        HEIGHT AND MOVEMENT BASED ON SATELLITE IMAGERY AND MODEL
        GUIDANCE.
NXT ADVISORY: NO LATER THAN 20240620/1940Z=]]></texte>
    </message>
    <message date_reception='20240620110000' type='VAA' oaci='ADRM' nom='DARWIN'>
        <texte><![CDATA[VA ADVISORY
DTG: 20240620/1100Z
VAAC: DARWIN
VOLCANO: IBU 268030
PSN: N0129 E12738
AREA: INDONESIA
SUMMIT ELEV: 1325M
ADVISORY NR: 2024/323
INFO SOURCE: HIMAWARI-9, CVGHM
AVIATION COLOUR CODE: ORANGE
ERUPTION DETAILS: VA TO FL140 LAST REPORTED AT 19/1543Z MOV
        NW
EST VA DTG: 20/1040Z
EST VA CLD: SFC/FL140 N0123 E12738 - N0132 E12704 - N0200
        E12713 - N0202 E12744 - N0128 E12744 MOV NW 10KT
FCST VA CLD +6 HR: 20/1640Z NO VA EXP
FCST VA CLD +12 HR: 20/2240Z NO VA EXP
FCST VA CLD +18 HR: 21/0440Z NO VA EXP
RMK: VA NOT IDENTIFIABLE ON SATELLITE IMAGERY DUE TO MET
        CLOUD, HOWEVER INTERMITTENT DISCRETE VA EMISSIONS EXPECTED
        TO CONTINUE. CVGHM REPORTED ERUPTION TO 2500M ABOVE SUMMIT
        AT 19/1543Z. HEIGHT AND MOVEMENT BASED ON GROUND REPORT AND
        MODEL GUIDANCE.
NXT ADVISORY: NO LATER THAN 20240620/1700Z=]]></texte>
    </message>
    <message date_reception='20240620095000' type='VAA' oaci='ADRM' nom='DARWIN'>
        <texte><![CDATA[VA ADVISORY
DTG: 20240620/0950Z
VAAC: DARWIN
VOLCANO: SEMERU 263300
PSN: S0806 E11255
AREA: INDONESIA
SUMMIT ELEV: 3657M
ADVISORY NR: 2024/582
INFO SOURCE: HIMAWARI-9, CVGHM VONA, WEBCAM
AVIATION COLOUR CODE: ORANGE
ERUPTION DETAILS: VA TO FL150 OBS AT 20/0930Z MOV N
OBS VA DTG: 20/0930Z
OBS VA CLD: SFC/FL150 S0809 E11300 - S0812 E11254 - S0803
        E11232 - S0733 E11230 - S0732 E11304 MOV N 10KT
FCST VA CLD +6 HR: 20/1530Z SFC/FL150 S0812 E11254 - S0809
        E11233 - S0754 E11220 - S0733 E11226 - S0735 E11251 - S0809
        E11301
FCST VA CLD +12 HR: 20/2130Z SFC/FL150 S0803 E11300 - S0810
        E11300 - S0816 E11225 - S0800 E11212 - S0746 E11228
FCST VA CLD +18 HR: 21/0330Z SFC/FL150 S0758 E11300 - S0816
        E11312 - S0832 E11300 - S0830 E11237 - S0813 E11225 - S0756
        E11236
RMK: INTERMITTENT VA EMISSIONS IDENTIFIBALE ON LATEST
        SATELLITE AND WEBCAM IMAGERY. CVGHM VONA REPORTED LAST
        ERUPTION AT 20/0759Z. VA HEIGHT AND MOVEMENT BASED ON
        SATELLITE IMAGERY, GROUND REPORTS AND MODEL GUIDANCE.
NXT ADVISORY: NO LATER THAN 20240620/1550Z=]]></texte>
    </message>
    <message date_reception='20240620081000' type='VAA' oaci='ADRM' nom='DARWIN'>
        <texte><![CDATA[VA ADVISORY
DTG: 20240620/0810Z
VAAC: DARWIN
VOLCANO: LEWOTOBI 264180
PSN: S0833 E12246
AREA: INDONESIA
SUMMIT ELEV: 1703M
ADVISORY NR: 2024/277
INFO SOURCE: CVGHM VONA, HIMAWARI-9
AVIATION COLOUR CODE: ORANGE
ERUPTION DETAILS: VA TO FL100 OBS AT 20/0750Z MOV WSW
OBS VA DTG: 20/0750Z
OBS VA CLD: SFC/FL100 S0839 E12251 - S0931 E12135 - S0900
        E12102 - S0814 E12118 - S0823 E12247 MOV SW 10KT
FCST VA CLD +6 HR: 20/1350Z SFC/FL100 S0838 E12252 - S0946
        E12144 - S0927 E12106 - S0845 E12106 - S0823 E12246
FCST VA CLD +12 HR: 20/1950Z SFC/FL100 S0829 E12252 - S0956
        E12246 - S0958 E12200 - S0923 E12131 - S0824 E12242
FCST VA CLD +18 HR: 21/0150Z SFC/FL100 S0824 E12242 - S0828
        E12254 - S0946 E12306 - S0959 E12219 - S0922 E12145
RMK: CVGHM REPORTED VA TO 800M ABV SUMMIT AT 20/0656Z. VA
        CLEARLY OBS ON LATEST SAT IMG MOV W TO SW. EXPECTED TO
        DISSIPATE IN 6-12 HOURS, HOWEVER INTERMITTENT EMISSIONS MAY
        BE ONGOING. HEIGHT AND FCST BASED ON SAT IMG, GROUND REPORT
        AND MODEL GUIDANCE.
NXT ADVISORY: NO LATER THAN 20240620/1410Z=]]></texte>
    </message>
    <message date_reception='20240620120100' type='VAA' oaci='RJTD' nom='TOKYO'>
        <texte><![CDATA[VA ADVISORY
DTG: 20240620/1201Z
VAAC: TOKYO
VOLCANO: KARYMSKY 300130
PSN: N5403 E15927
AREA: RUSSIA
SUMMIT ELEV: 1513M
ADVISORY NR: 2024/2
INFO SOURCE: KVERT HIMAWARI-9
AVIATION COLOUR CODE: NIL
ERUPTION DETAILS: POSS ERUPTION OBS AT 20240620/1110Z FL120 EXTD SW
OBS VA DTG: 20/1130Z
OBS VA CLD: SFC/FL200 N5218 E15819 - N5200 E15839 - N5211 E15948 -
N5154 E15945 - N5150 E15835 - N5209 E15800 MOV S 25KT SFC/FL120
N5404 E15932 - N5350 E15926 - N5359 E15915 - N5406 E15924 MOV SW
15KT
FCST VA CLD +6 HR: 20/1730Z SFC/FL200 N5022 E16054 - N4947 E16051 -
N5050 E15807 - N5110 E15830 SFC/FL150 N5325 E15910 - N5239 E15909 -
N5241 E15841 - N5327 E15853
FCST VA CLD +12 HR: 20/2330Z SFC/FL190 N4845 E16209 - N4821 E16126 -
N4951 E15911 - N5014 E15942 - N4941 E16126 SFC/FL160 N5137 E15945 -
N5130 E15900 - N5234 E15845 - N5239 E15911
FCST VA CLD +18 HR: NO VA EXP
RMK: NEW VA OBS IN SATELLITE IMAGERY.
NXT ADVISORY: 20240620/1800Z=]]></texte>
    </message>
    <message date_reception='20240620083800' type='VAA' oaci='RJTD' nom='TOKYO'>
        <texte><![CDATA[VA ADVISORY
DTG: 20240620/0838Z
VAAC: TOKYO
VOLCANO: KARYMSKY 300130
PSN: N5403 E15927
AREA: RUSSIA
SUMMIT ELEV: 1513M
ADVISORY NR: 2024/1
INFO SOURCE: HIMAWARI-9
AVIATION COLOUR CODE: NIL
ERUPTION DETAILS: POSS ERUPTION OBS AT 20240620/0700Z FL200 EXTD S
OBS VA DTG: 20/0800Z
OBS VA CLD: SFC/FL200 N5332 E15906 - N5340 E15909 - N5339 E15924 -
N5328 E15915 MOV S 30KT
FCST VA CLD +6 HR: 20/1400Z SFC/FL190 N5124 E15923 - N5108 E15853 -
N5156 E15759 - N5208 E15817
FCST VA CLD +12 HR: 20/2000Z SFC/FL180 N5108 E15814 - N5002 E16030 -
N4937 E16005 - N5051 E15757
FCST VA CLD +18 HR: NO VA EXP
RMK: NIL
NXT ADVISORY: 20240620/1200Z=]]></texte>
    </message>
    <message date_reception='NIL' type='VAA' oaci='LFPW' nom='TOULOUSE'>
        <texte><![CDATA[NIL]]></texte>
    </message>
    <message date_reception='NIL' type='TCA' oaci='RJTD' nom='TOKYO'>
        <texte><![CDATA[NIL]]></texte>
    </message>
    <message date_reception='NIL' type='TCA' oaci='VIDP' nom='NEW DELHI'>
        <texte><![CDATA[NIL]]></texte>
    </message>
    <carte>
        <typecarte>WINTEM</typecarte>
        <niveau>FL450</niveau>
        <zone>MID G</zone>
        <date_run>20 06 2024 15:00</date_run>
        <date_echeance>20240620150000</date_echeance>
        <echeance>15 UTC</echeance>
        <lien>
            <![CDATA[/FR/aviation/affiche_image.php]]></lien>
    </carte>
    <carte>
        <typecarte>WINTEM</typecarte>
        <niveau>FL50</niveau>
        <zone>MID G</zone>
        <date_run>20 06 2024 18:00</date_run>
        <date_echeance>20240620180000</date_echeance>
        <echeance>18 UTC</echeance>
        <lien>
            <![CDATA[/FR/aviation/affiche_image.php]]></lien>
    </carte>
    <carte>
        <typecarte>WINTEM</typecarte>
        <niveau>FL50</niveau>
        <zone>MID G</zone>
        <date_run>20 06 2024 21:00</date_run>
        <date_echeance>20240620210000</date_echeance>
        <echeance>21 UTC</echeance>
        <lien>
            <![CDATA[/FR/aviation/affiche_image.php]]></lien>
    </carte>
    <carte>
        <typecarte>TEMSI</typecarte>
        <niveau>FL250-630</niveau>
        <zone>MID G</zone>
        <date_run>20 06 2024 18:00</date_run>
        <date_echeance>20240620180000</date_echeance>
        <echeance>18 UTC</echeance>
        <lien>
            <![CDATA[/FR/aviation/affiche_image.php]]></lien>
    </carte>
    <VAG date_reception='20240620090000' oaci='ADRM' nom='DARWIN'>
        <lien>
            <![CDATA[/FR/aviation/affiche_vagtcag.php]]></lien>
    </VAG>
    <VAG date_reception='20240620110000' oaci='ADRM' nom='DARWIN'>
        <lien>
            <![CDATA[/FR/aviation/affiche_vagtcag.php]]></lien>
    </VAG>
    <VAG date_reception='20240620130000' oaci='ADRM' nom='DARWIN'>
        <lien>
            <![CDATA[/FR/aviation/affiche_vagtcag.php]]></lien>
    </VAG>
    <VAG date_reception='20240620140000' oaci='ADRM' nom='DARWIN'>
        <lien>
            <![CDATA[/FR/aviation/affiche_vagtcag.php]]></lien>
    </VAG>
    <VAG date_reception='20240620150000' oaci='ADRM' nom='DARWIN'>
        <lien>
            <![CDATA[/FR/aviation/affiche_vagtcag.php]]></lien>
    </VAG>
    <VAG date_reception='20240620083800' oaci='RJTD' nom='TOKYO'>
        <lien>
            <![CDATA[/FR/aviation/affiche_vagtcag.php]]></lien>
    </VAG>
    <VAG date_reception='20240620120100' oaci='RJTD' nom='TOKYO'>
        <lien>
            <![CDATA[/FR/aviation/affiche_vagtcag.php]]></lien>
    </VAG>
    <VAG date_reception='NIL' oaci='LFPW' nom='TOULOUSE'>
        <lien><![CDATA[NIL]]></lien>
    </VAG>
    <TCAG date_reception='NIL' oaci='RJTD' nom='TOKYO'>
        <lien><![CDATA[NIL]]></lien>
    </TCAG>
    <TCAG date_reception='NIL' oaci='DEMS' nom='NEW DELHI'>
        <lien><![CDATA[NIL]]></lien>
    </TCAG>
</dossier>
